[{"OBJECT_NAME":"STARLINK-5510","OBJECT_ID":"2023-021V","EPOCH":"2026-03-09T17:57:19.096416","MEAN_MOTION":14.98333238,"ECCENTRICITY":0.00032648,"INCLINATION":70.0015,"RA_OF_ASC_NODE":184.1673,"ARG_OF_PERICENTER":270.0124,"MEAN_ANOMALY":90.0661,"EPHEMERIS_TYPE":0,"CLASSIFICATION_TYPE":"U","NORAD_CAT_ID":55647,"ELEMENT_SET_NO":999,"REV_AT_EPOCH":16880,"BSTAR":1.723613e-5,"MEAN_MOTION_DOT":1.13e-6,"MEAN_MOTION_DDOT":0},{"OBJECT_NAME":"LEMUR-2-BALTO","OBJECT_ID":"2025-052BH","EPOCH":"2026-03-09T16:40:42.002112","MEAN_MOTION":14.98934076,"ECCENTRICITY":0.00022794,"INCLINATION":97.6978,"RA_OF_ASC_NODE":323.5166,"ARG_OF_PERICENTER":359.2852,"MEAN_ANOMALY":0.8367,"EPHEMERIS_TYPE":0,"CLASSIFICATION_TYPE":"U","NORAD_CAT_ID":63395,"ELEMENT_SET_NO":999,"REV_AT_EPOCH":5385,"BSTAR":0.00063455958,"MEAN_MOTION_DOT":7.621e-5,"MEAN_MOTION_DDOT":0}]
